ONEWEB-0256             
1 48974U 21060H   24107.48598087 -.00000002  00000+0 -37807-4 0  9996
2 48974  87.9156  26.3691 0001855  72.6415 287.4918 13.16594742136743
ONEWEB-0257             
1 48975U 21060J   24107.21444983  .00000131  00000+0  31020-3 0  9994
2 48975  87.9151  26.3954 0001695  75.9025 284.2295 13.16593659136666
ONEWEB-0258             
1 48976U 21060K   24107.21602768  .00000191  00000+0  46714-3 0  9994
2 48976  87.9149  26.4239 0001861  81.2006 278.9335 13.16592879136663
ONEWEB-0259             
1 48977U 21060L   24107.20969570  .00000169  00000+0  40774-3 0  9996
2 48977  87.9150  26.4099 0001844  89.3594 270.7749 13.16592932136706
ONEWEB-0260             
1 48978U 21060M   24107.20101939  .00000030  00000+0  45469-4 0  9998
2 48978  87.9152  26.4398 0001629  59.2081 300.9210 13.16593734136675
ONEWEB-0261             
1 48979U 21060N   24106.71413486  .00000002  00000+0 -28125-4 0  9997
2 48979  87.9154  26.5288 0001197  83.1440 276.9827 13.16593640135381
ONEWEB-0262             
1 48980U 21060P   24107.22711919  .00000199  00000+0  48759-3 0  9998
2 48980  87.9152  26.3930 0001684  95.9307 264.2016 13.16595073136717
ONEWEB-0263             
1 48981U 21060Q   24107.18277060  .00000063  00000+0  13003-3 0  9992
2 48981  87.9154  26.4159 0001456  90.8078 269.3220 13.16592299136675
